NORAD_CAT_ID,OBJECT_NAME,OBJECT_TYPE,EPOCH,MEAN_MOTION,ECCENTRICITY,INCLINATION,RA_OF_ASC_NODE,ARG_OF_PERICENTER,MEAN_ANOMALY,BSTAR,MEAN_MOTION_DOT,MEAN_MOTION_DDOT,TLE_LINE0,TLE_LINE1,TLE_LINE2,SEMIMAJOR_AXIS,PERIOD,APOGEE,PERIGEE,DECAYED
55309.0,STARLINK-5315,PAYLOAD,2023-06-03 19:54:52,15.69926831,0.0003253,69.9989,48.5158,261.1572,98.9256,1.4619e-06,-3.7e-07,0.0,0 STARLINK-5315,1 55309U 23010AS  23154.82977048 -.00000037  00000-0  14619-5 0  9995,2 55309  69.9989  48.5158 0003253 261.1572  98.9256 15.69926831 22061,6737.243,91.724,361.3,356.917,0.0
55309.0,STARLINK-5315,PAYLOAD,2023-06-04 05:05:22,15.69924125,0.0003474,69.9976,47.4388,266.3126,93.7672,9.0538e-06,8.76e-06,0.0,0 STARLINK-5315,1 55309U 23010AS  23155.21206969  .00000876  00000-0  90538-5 0  9990,2 55309  69.9976  47.4388 0003474 266.3126  93.7672 15.69924125 22123,6737.251,91.724,361.457,356.776,0.0
55309.0,STARLINK-5315,PAYLOAD,2023-06-04 18:51:09,15.69922909,0.0003498,69.9977,45.8266,266.5984,93.4811,-3.1115e-06,-5.87e-06,0.0,0 STARLINK-5315,1 55309U 23010AS  23155.78552430 -.00000587  00000-0 -31115-5 0  9996,2 55309  69.9977  45.8266 0003498 266.5984  93.4811 15.69922909 21894,6737.255,91.724,361.476,356.763,0.0
55309.0,STARLINK-5315,PAYLOAD,2023-06-04 20:22:54,15.69921834,0.0003507,69.9978,45.6475,266.7193,93.3601,-4.4218e-06,-7.44e-06,0.0,0 STARLINK-5315,1 55309U 23010AS  23155.84924191 -.00000744  00000-0 -44218-5 0  9993,2 55309  69.9978  45.6475 0003507 266.7193  93.3601 15.69921834 22220,6737.258,91.724,361.485,356.76,0.0
55309.0,STARLINK-5315,PAYLOAD,2023-06-05 04:01:39,15.6991634,0.0003228,69.9978,44.7517,260.3008,99.7823,2.2139e-05,2.449e-05,0.0,0 STARLINK-5315,1 55309U 23010AS  23156.16782360  .00002449  00000-0  22139-4 0  9998,2 55309  69.9978  44.7517 0003228 260.3008  99.7823 15.69916340 22279,6737.273,91.725,361.313,356.964,0.0
55309.0,STARLINK-5315,PAYLOAD,2023-06-05 19:19:11,15.69920596,0.0003368,69.9981,42.9604,265.3894,94.6917,2.038e-08,-2.1e-06,0.0,0 STARLINK-5315,1 55309U 23010AS  23156.80499296 -.00000210  00000-0  20380-7 0  9996,2 55309  69.9981  42.9604 0003368 265.3894  94.6917 15.69920596 22370,6737.261,91.724,361.395,356.857,0.0
55309.0,STARLINK-5315,PAYLOAD,2023-06-05 23:54:26,15.69920503,0.0003405,69.9982,42.4228,265.413,94.6677,6.048e-06,5.14e-06,0.0,0 STARLINK-5315,1 55309U 23010AS  23156.99614202  .00000514  00000-0  60480-5 0  9991,2 55309  69.9982  42.4228 0003405 265.4130  94.6677 15.69920503 22083,6737.261,91.724,361.42,356.832,0.0
55309.0,STARLINK-5315,PAYLOAD,2023-06-06 02:57:56,15.69925783,0.000335,69.9982,42.0646,264.4757,95.6057,1.1343e-05,1.151e-05,0.0,0 STARLINK-5315,1 55309U 23010AS  23157.12357091  .00001151  00000-0  11343-4 0  9998,2 55309  69.9982  42.0646 0003350 264.4757  95.6057 15.69925783 22107,6737.246,91.724,361.368,356.854,0.0
55309.0,STARLINK-5315,PAYLOAD,2023-06-06 18:15:28,15.69910508,0.0003201,69.9987,40.2746,259.6763,100.4072,3.1506e-05,3.575e-05,0.0,0 STARLINK-5315,1 55309U 23010AS  23157.76074093  .00003575  00000-0  31506-4 0  9991,2 55309  69.9987  40.2746 0003201 259.6763 100.4072 15.69910508 22528,6737.29,91.725,361.312,356.998,0.0
55309.0,STARLINK-5315,PAYLOAD,2023-06-07 01:54:13,15.69919955,0.0003627,69.9984,39.3791,262.5445,97.5339,1.0314e-05,1.027e-05,0.0,0 STARLINK-5315,1 55309U 23010AS  23158.07932463  .00001027  00000-0  10314-4 0  9994,2 55309  69.9984  39.3791 0003627 262.5445  97.5339 15.69919955 22253,6737.263,91.724,361.572,356.684,0.0
55309.0,STARLINK-5315,PAYLOAD,2023-06-07 03:25:58,15.69921227,0.0003696,69.9981,39.1992,263.366,96.7115,1.237e-05,1.275e-05,0.0,0 STARLINK-5315,1 55309U 23010AS  23158.14304032  .00001275  00000-0  12370-4 0  9996,2 55309  69.9981  39.1992 0003696 263.3660  96.7115 15.69921227 22589,6737.259,91.724,361.614,356.634,0.0
55309.0,STARLINK-5315,PAYLOAD,2023-06-07 18:43:30,15.69923395,0.0003672,69.9969,37.4047,263.2366,96.8412,2.6453e-07,-1.81e-06,0.0,0 STARLINK-5315,1 55309U 23010AS  23158.78020966 -.00000181  00000-0  26453-6 0  9992,2 55309  69.9969  37.4047 0003672 263.2366  96.8412 15.69923395 22683,6737.253,91.724,361.592,356.644,0.0
55309.0,STARLINK-5315,PAYLOAD,2023-06-08 02:22:15,15.69929468,0.000337,69.9981,36.5117,262.3265,97.7548,6.0304e-06,5.13e-06,0.0,0 STARLINK-5315,1 55309U 23010AS  23159.09878790  .00000513  00000-0  60304-5 0  9993,2 55309  69.9981  36.5117 0003370 262.3265  97.7548 15.69929468 22416,6737.236,91.724,361.371,356.83,0.0
55309.0,STARLINK-5315,PAYLOAD,2023-06-09 01:18:32,15.69924802,0.0003114,69.9989,33.8261,259.389,100.6955,3.45e-06,2.02e-06,0.0,0 STARLINK-5315,1 55309U 23010AS  23160.05454188  .00000202  00000-0  34500-5 0  9996,2 55309  69.9989  33.8261 0003114 259.3890 100.6955 15.69924802 22569,6737.249,91.724,361.212,357.016,0.0
55309.0,STARLINK-5315,PAYLOAD,2023-06-09 08:57:18,15.69912411,0.000367,69.9975,32.9256,267.9128,92.1648,-1.065e-06,-3.41e-06,0.0,0 STARLINK-5315,1 55309U 23010AS  23160.37313317 -.00000341  00000-0 -10650-5 0  9995,2 55309  69.9975  32.9256 0003670 267.9128  92.1648 15.69912411 22617,6737.285,91.725,361.622,356.677,0.0
55309.0,STARLINK-5315,PAYLOAD,2023-06-09 16:36:04,15.69921861,0.0004053,69.9969,32.0326,271.4004,88.6727,-8.4054e-06,-1.224e-05,0.0,0 STARLINK-5315,1 55309U 23010AS  23160.69171442 -.00001224  00000-0 -84054-5 0  9991,2 55309  69.9969  32.0326 0004053 271.4004  88.6727 15.69921861 22985,6737.258,91.724,361.853,356.392,0.0
55309.0,STARLINK-5315,PAYLOAD,2023-06-09 18:07:49,15.69922877,0.0003724,69.9982,31.8528,265.9939,94.0831,-3.0508e-06,-5.8e-06,0.0,0 STARLINK-5315,1 55309U 23010AS  23160.75542955 -.00000580  00000-0 -30508-5 0  9998,2 55309  69.9982  31.8528 0003724 265.9939  94.0831 15.69922877 22671,6737.255,91.724,361.629,356.611,0.0
55309.0,STARLINK-5315,PAYLOAD,2023-06-10 00:14:48,15.69935987,0.0003696,69.9973,31.1366,272.0247,88.0525,8.3728e-06,7.94e-06,0.0,0 STARLINK-5315,1 55309U 23010AS  23161.01028526  .00000794  00000-0  83728-5 0  9998,2 55309  69.9973  31.1366 0003696 272.0247  88.0525 15.69935987 22717,6737.217,91.723,361.572,356.592,0.0
55309.0,STARLINK-5315,PAYLOAD,2023-06-10 18:35:50,15.69921242,0.0003461,69.9976,28.9845,274.9502,85.1299,1.0377e-05,1.035e-05,0.0,0 STARLINK-5315,1 55309U 23010AS  23161.77489466  .00001035  00000-0  10377-4 0  9993,2 55309  69.9976  28.9845 0003461 274.9502  85.1299 15.69921242 23155,6737.259,91.724,361.456,356.793,0.0
55309.0,STARLINK-5315,PAYLOAD,2023-06-11 08:21:37,15.69910489,0.0003562,69.9967,27.3728,271.0021,89.0767,5.8661e-06,4.92e-06,0.0,0 STARLINK-5315,1 55309U 23010AS  23162.34835223  .00000492  00000-0  58661-5 0  9998,2 55309  69.9967  27.3728 0003562 271.0021  89.0767 15.69910489 22922,6737.29,91.725,361.555,356.755,0.0
55309.0,STARLINK-5315,PAYLOAD,2023-06-11 14:28:37,15.69921754,0.0003766,69.9973,26.6556,270.7848,89.2916,8.0214e-06,7.52e-06,0.0,0 STARLINK-5315,1 55309U 23010AS  23162.60321316  .00000752  00000-0  80214-5 0  9998,2 55309  69.9973  26.6556 0003766 270.7848  89.2916 15.69921754 23284,6737.258,91.724,361.66,356.586,0.0
55309.0,STARLINK-5315,PAYLOAD,2023-06-11 19:03:52,15.69912902,0.0003668,69.9996,26.1244,266.5005,93.5772,4.1972e-05,4.835e-05,0.0,0 STARLINK-5315,1 55309U 23010AS  23162.79436192  .00004835  00000-0  41972-4 0  9990,2 55309  69.9996  26.1244 0003668 266.5005  93.5772 15.69912902 23314,6737.283,91.725,361.619,356.677,0.0
55309.0,STARLINK-5315,PAYLOAD,2023-06-11 23:39:07,15.69933187,0.0003264,69.9997,25.5856,258.8272,101.2557,1.18e-05,1.207e-05,0.0,0 STARLINK-5315,1 55309U 23010AS  23162.98550402  .00001207  00000-0  11800-4 0  9999,2 55309  69.9997  25.5856 0003264 258.8272 101.2557 15.69933187 23023,6737.225,91.724,361.289,356.891,0.0
55309.0,STARLINK-5315,PAYLOAD,2023-06-12 22:35:25,15.69927064,0.0002848,69.9988,22.8971,248.0617,112.0276,3.343e-07,-1.72e-06,0.0,0 STARLINK-5315,1 55309U 23010AS  23163.94126233 -.00000172  00000-0  33430-6 0  9993,2 55309  69.9988  22.8971 0002848 248.0617 112.0276 15.69927064 23173,6737.243,91.724,361.026,357.189,0.0
55309.0,STARLINK-5315,PAYLOAD,2023-06-13 13:52:56,15.69927462,0.0002911,70.0,21.1073,260.1134,99.9734,1.065e-05,1.068e-05,0.0,0 STARLINK-5315,1 55309U 23010AS  23164.57842708  .00001068  00000-0  10650-4 0  9996,2 55309  70.0000  21.1073 0002911 260.1134  99.9734 15.69927462 23596,6737.242,91.724,361.068,357.145,0.0
55309.0,STARLINK-5315,PAYLOAD,2023-06-13 18:28:12,15.6991886,0.0003266,69.9975,20.5641,271.3719,88.7103,3.3451e-06,1.89e-06,0.0,0 STARLINK-5315,1 55309U 23010AS  23164.76958512  .00000189  00000-0  33451-5 0  9996,2 55309  69.9975  20.5641 0003266 271.3719  88.7103 15.69918860 23302,6737.266,91.724,361.332,356.931,0.0
55309.0,STARLINK-5315,PAYLOAD,2023-06-14 02:06:57,15.69931671,0.0003746,69.998,19.6704,279.2965,80.7807,1.2075e-06,-6.8e-07,0.0,0 STARLINK-5315,1 55309U 23010AS  23165.08816105 -.00000068  00000-0  12075-5 0  9999,2 55309  69.9980  19.6704 0003746 279.2965  80.7807 15.69931671 23353,6737.229,91.724,361.618,356.571,0.0
55309.0,STARLINK-5315,PAYLOAD,2023-06-14 15:52:43,15.69920941,0.0003731,69.9974,18.0579,267.2637,92.8131,-5.1863e-06,-8.37e-06,0.0,0 STARLINK-5315,1 55309U 23010AS  23165.66161978 -.00000837  00000-0 -51863-5 0  9997,2 55309  69.9974  18.0579 0003731 267.2637  92.8131 15.69920941 23448,6737.26,91.724,361.639,356.612,0.0
55309.0,STARLINK-5315,PAYLOAD,2023-06-14 20:27:58,15.69927229,0.0003585,69.9975,17.5215,269.2564,90.8221,1.7575e-06,-2e-08,0.0,0 STARLINK-5315,1 55309U 23010AS  23165.85276475 -.00000002  00000-0  17575-5 0  9992,2 55309  69.9975  17.5215 0003585 269.2564  90.8221 15.69927229 23790,6737.242,91.724,361.522,356.692,0.0
55309.0,STARLINK-5315,PAYLOAD,2023-06-15 13:17:15,15.69920627,0.0003884,69.9977,15.5506,270.6951,89.38,6.1361e-06,5.25e-06,0.0,0 STARLINK-5315,1 55309U 23010AS  23166.55365113  .00000525  00000-0  61361-5 0  9999,2 55309  69.9977  15.5506 0003884 270.6951  89.3800 15.69920627 23905,6737.261,91.724,361.743,356.509,0.0
